ONEWEB-0249             
1 48967U 21060A   24130.41885009 -.00000064  00000+0 -20183-3 0  9996
2 48967  87.9145  21.8016 0001857  79.8113 280.3227 13.16593388138450
ONEWEB-0250             
1 48968U 21060B   24130.42359863 -.00000019  00000+0 -82580-4 0  9992
2 48968  87.9144  21.7842 0002043  87.7021 272.4344 13.16595447138438
ONEWEB-0253             
1 48971U 21060E   24130.43943223  .00000050  00000+0  96806-4 0  9995
2 48971  87.9142  21.8036 0001829  90.9237 269.2104 13.16593325138433
ONEWEB-0254             
1 48972U 21060F   24130.60092279  .00000148  00000+0  35234-3 0  9996
2 48972  87.9144  21.7486 0001813  91.9330 268.2009 13.16597955138450
ONEWEB-0255             
1 48973U 21060G   24130.41094189 -.00000011  00000+0 -63412-4 0  9999
2 48973  87.9145  21.8211 0001859  81.7678 278.3663 13.16592525138503
ONEWEB-0256             
1 48974U 21060H   24130.43702192  .00000019  00000+0  15203-4 0  9993
2 48974  87.9147  21.8179 0001627  77.7752 282.3561 13.16598160138479
ONEWEB-0257             
1 48975U 21060J   24130.62150363  .00000106  00000+0  24443-3 0  9994
2 48975  87.9146  21.7531 0001679  83.3795 276.7527 13.16593079138458
